[{"OBJECT_NAME":"ONEWEB-0639","OBJECT_ID":"2023-029H","EPOCH":"2026-04-17T01:48:17.902944","MEAN_MOTION":13.19723881,"ECCENTRICITY":0.0002592,"INCLINATION":87.9166,"RA_OF_ASC_NODE":317.1641,"ARG_OF_PERICENTER":71.4771,"MEAN_ANOMALY":288.6644,"EPHEMERIS_TYPE":0,"CLASSIFICATION_TYPE":"U","NORAD_CAT_ID":55803,"ELEMENT_SET_NO":999,"REV_AT_EPOCH":15084,"BSTAR":0.00018121,"MEAN_MOTION_DOT":8.6e-07,"MEAN_MOTION_DDOT":0.0},{"OBJECT_NAME":"ONEWEB-0640","OBJECT_ID":"2023-029J","EPOCH":"2026-04-17T06:43:12.603072","MEAN_MOTION":13.14502449,"ECCENTRICITY":0.0002399,"INCLINATION":87.8918,"RA_OF_ASC_NODE":301.9057,"ARG_OF_PERICENTER":98.4355,"MEAN_ANOMALY":261.7047,"EPHEMERIS_TYPE":0,"CLASSIFICATION_TYPE":"U","NORAD_CAT_ID":55804,"ELEMENT_SET_NO":999,"REV_AT_EPOCH":15141,"BSTAR":0.0001966,"MEAN_MOTION_DOT":8.6e-07,"MEAN_MOTION_DDOT":0.0},{"OBJECT_NAME":"ONEWEB-0641","OBJECT_ID":"2023-029K","EPOCH":"2026-04-17T03:30:38.340576","MEAN_MOTION":13.19723801,"ECCENTRICITY":0.0001861,"INCLINATION":87.9164,"RA_OF_ASC_NODE":317.1373,"ARG_OF_PERICENTER":81.4673,"MEAN_ANOMALY":278.6671,"EPHEMERIS_TYPE":0,"CLASSIFICATION_TYPE":"U","NORAD_CAT_ID":55805,"ELEMENT_SET_NO":999,"REV_AT_EPOCH":15086,"BSTAR":0.00031652000000000004,"MEAN_MOTION_DOT":1.4e-06,"MEAN_MOTION_DDOT":0.0},{"OBJECT_NAME":"ONEWEB-0642","OBJECT_ID":"2023-029L","EPOCH":"2026-04-17T03:23:49.201152","MEAN_MOTION":13.19727244,"ECCENTRICITY":0.0002338,"INCLINATION":87.9163,"RA_OF_ASC_NODE":317.152,"ARG_OF_PERICENTER":68.1302,"MEAN_ANOMALY":292.0079,"EPHEMERIS_TYPE":0,"CLASSIFICATION_TYPE":"U","NORAD_CAT_ID":55806,"ELEMENT_SET_NO":999,"REV_AT_EPOCH":15085,"BSTAR":4.9572e-05,"MEAN_MOTION_DOT":3.3e-07,"MEAN_MOTION_DDOT":0.0},{"OBJECT_NAME":"ONEWEB-0643","OBJECT_ID":"2023-029M","EPOCH":"2026-04-17T02:20:35.791872","MEAN_MOTION":13.1450165,"ECCENTRICITY":0.0001942,"INCLINATION":87.8921,"RA_OF_ASC_NODE":301.9287,"ARG_OF_PERICENTER":68.8922,"MEAN_ANOMALY":291.2415,"EPHEMERIS_TYPE":0,"CLASSIFICATION_TYPE":"U","NORAD_CAT_ID":55807,"ELEMENT_SET_NO":999,"REV_AT_EPOCH":15136,"BSTAR":-0.00059804,"MEAN_MOTION_DOT":-2.09e-06,"MEAN_MOTION_DDOT":0.0},{"OBJECT_NAME":"ONEWEB-0644","OBJECT_ID":"2023-029N","EPOCH":"2026-04-17T06:55:20.663040","MEAN_MOTION":13.19724442,"ECCENTRICITY":0.0001974,"INCLINATION":87.9153,"RA_OF_ASC_NODE":317.1263,"ARG_OF_PERICENTER":76.6169,"MEAN_ANOMALY":283.5184,"EPHEMERIS_TYPE":0,"CLASSIFICATION_TYPE":"U","NORAD_CAT_ID":55808,"ELEMENT_SET_NO":999,"REV_AT_EPOCH":15087,"BSTAR":0.00019051000000000002,"MEAN_MOTION_DOT":8.9e-07,"MEAN_MOTION_DDOT":0.0},{"OBJECT_NAME":"ONEWEB-0645","OBJECT_ID":"2023-029P","EPOCH":"2026-04-17T01:59:41.006400","MEAN_MOTION":13.19689316,"ECCENTRICITY":0.0002314,"INCLINATION":87.9166,"RA_OF_ASC_NODE":317.1628,"ARG_OF_PERICENTER":91.9752,"MEAN_ANOMALY":268.1645,"EPHEMERIS_TYPE":0,"CLASSIFICATION_TYPE":"U","NORAD_CAT_ID":55809,"ELEMENT_SET_NO":999,"REV_AT_EPOCH":15084,"BSTAR":0.017115000000000002,"MEAN_MOTION_DOT":6.867e-05,"MEAN_MOTION_DDOT":0.0},{"OBJECT_NAME":"ONEWEB-0646","OBJECT_ID":"2023-029Q","EPOCH":"2026-04-17T02:24:40.152672","MEAN_MOTION":13.19727175,"ECCENTRICITY":0.0001864,"INCLINATION":87.9163,"RA_OF_ASC_NODE":317.1593,"ARG_OF_PERICENTER":77.6615,"MEAN_ANOMALY":282.4726,"EPHEMERIS_TYPE":0,"CLASSIFICATION_TYPE":"U","NORAD_CAT_ID":55810,"ELEMENT_SET_NO":999,"REV_AT_EPOCH":15083,"BSTAR":0.00018892,"MEAN_MOTION_DOT":8.9e-07,"MEAN_MOTION_DDOT":0.0},{"OBJECT_NAME":"ONEWEB-0648","OBJECT_ID":"2023-029R","EPOCH":"2026-04-17T01:34:56.240544","MEAN_MOTION":13.14501356,"ECCENTRICITY":0.0002603,"INCLINATION":87.8929,"RA_OF_ASC_NODE":301.9031,"ARG_OF_PERICENTER":80.2728,"MEAN_ANOMALY":279.8696,"EPHEMERIS_TYPE":0,"CLASSIFICATION_TYPE":"U","NORAD_CAT_ID":55811,"ELEMENT_SET_NO":999,"REV_AT_EPOCH":15136,"BSTAR":0.0005784399999999999,"MEAN_MOTION_DOT":2.27e-06,"MEAN_MOTION_DDOT":0.0},{"OBJECT_NAME":"ONEWEB-0649","OBJECT_ID":"2023-029S","EPOCH":"2026-04-17T03:01:04.757664","MEAN_MOTION":13.19723702,"ECCENTRICITY":0.0002038,"INCLINATION":87.9169,"RA_OF_ASC_NODE":317.1515,"ARG_OF_PERICENTER":83.6078,"MEAN_ANOMALY":276.5287,"EPHEMERIS_TYPE":0,"CLASSIFICATION_TYPE":"U","NORAD_CAT_ID":55812,"ELEMENT_SET_NO":999,"REV_AT_EPOCH":15087,"BSTAR":-0.00013097,"MEAN_MOTION_DOT":-3.9e-07,"MEAN_MOTION_DDOT":0.0},{"OBJECT_NAME":"ONEWEB-0650","OBJECT_ID":"2023-029T","EPOCH":"2026-04-17T02:54:15.016032","MEAN_MOTION":13.19723753,"ECCENTRICITY":0.0002037,"INCLINATION":87.9164,"RA_OF_ASC_NODE":317.1553,"ARG_OF_PERICENTER":75.0223,"MEAN_ANOMALY":285.1136,"EPHEMERIS_TYPE":0,"CLASSIFICATION_TYPE":"U","NORAD_CAT_ID":55813,"ELEMENT_SET_NO":999,"REV_AT_EPOCH":15084,"BSTAR":6.2378e-05,"MEAN_MOTION_DOT":3.8e-07,"MEAN_MOTION_DDOT":0.0},{"OBJECT_NAME":"ONEWEB-0652","OBJECT_ID":"2023-029U","EPOCH":"2026-04-17T01:07:31.359072","MEAN_MOTION":13.14501694,"ECCENTRICITY":0.0001604,"INCLINATION":87.8918,"RA_OF_ASC_NODE":301.9189,"ARG_OF_PERICENTER":92.3916,"MEAN_ANOMALY":267.7398,"EPHEMERIS_TYPE":0,"CLASSIFICATION_TYPE":"U","NORAD_CAT_ID":55814,"ELEMENT_SET_NO":999,"REV_AT_EPOCH":15133,"BSTAR":-1.7938000000000003e-05,"MEAN_MOTION_DOT":6e-08,"MEAN_MOTION_DDOT":0.0},{"OBJECT_NAME":"ONEWEB-0653","OBJECT_ID":"2023-029V","EPOCH":"2026-04-16T22:55:04.638720","MEAN_MOTION":13.14501796,"ECCENTRICITY":0.0001759,"INCLINATION":87.8931,"RA_OF_ASC_NODE":301.9313,"ARG_OF_PERICENTER":95.1213,"MEAN_ANOMALY":265.0118,"EPHEMERIS_TYPE":0,"CLASSIFICATION_TYPE":"U","NORAD_CAT_ID":55815,"ELEMENT_SET_NO":999,"REV_AT_EPOCH":15135,"BSTAR":-0.0005769400000000001,"MEAN_MOTION_DOT":-2.01e-06,"MEAN_MOTION_DDOT":0.0},{"OBJECT_NAME":"ONEWEB-0654","OBJECT_ID":"2023-029W","EPOCH":"2026-04-16T13:40:10.612992","MEAN_MOTION":13.14502057,"ECCENTRICITY":0.0001534,"INCLINATION":87.8922,"RA_OF_ASC_NODE":302.0051,"ARG_OF_PERICENTER":99.9518,"MEAN_ANOMALY":260.1785,"EPHEMERIS_TYPE":0,"CLASSIFICATION_TYPE":"U","NORAD_CAT_ID":55816,"ELEMENT_SET_NO":999,"REV_AT_EPOCH":15132,"BSTAR":-0.00055471,"MEAN_MOTION_DOT":-1.93e-06,"MEAN_MOTION_DDOT":0.0},{"OBJECT_NAME":"ONEWEB-0656","OBJECT_ID":"2023-029X","EPOCH":"2026-04-16T18:22:03.481248","MEAN_MOTION":13.20772011,"ECCENTRICITY":0.0001559,"INCLINATION":87.9138,"RA_OF_ASC_NODE":286.6887,"ARG_OF_PERICENTER":106.1324,"MEAN_ANOMALY":253.9981,"EPHEMERIS_TYPE":0,"CLASSIFICATION_TYPE":"U","NORAD_CAT_ID":55817,"ELEMENT_SET_NO":999,"REV_AT_EPOCH":15304,"BSTAR":0.00029712,"MEAN_MOTION_DOT":1.34e-06,"MEAN_MOTION_DDOT":0.0},{"OBJECT_NAME":"ONEWEB-0657","OBJECT_ID":"2023-029Y","EPOCH":"2026-04-17T02:47:25.750464","MEAN_MOTION":13.19729232,"ECCENTRICITY":7.54e-05,"INCLINATION":87.917,"RA_OF_ASC_NODE":317.1549,"ARG_OF_PERICENTER":75.739,"MEAN_ANOMALY":284.3827,"EPHEMERIS_TYPE":0,"CLASSIFICATION_TYPE":"U","NORAD_CAT_ID":55818,"ELEMENT_SET_NO":999,"REV_AT_EPOCH":15085,"BSTAR":-0.0028846,"MEAN_MOTION_DOT":-1.142e-05,"MEAN_MOTION_DDOT":0.0}]