ONEWEB-0639             
1 55803U 23029H   26107.07520721  .00000086  00000+0  18121-3 0  9996
2 55803  87.9166 317.1641 0002592  71.4771 288.6644 13.19723881150847
ONEWEB-0640             
1 55804U 23029J   26107.28000698  .00000086  00000+0  19660-3 0  9995
2 55804  87.8918 301.9057 0002399  98.4355 261.7047 13.14502449151419
ONEWEB-0641             
1 55805U 23029K   26107.14627709  .00000140  00000+0  31652-3 0  9995
2 55805  87.9164 317.1373 0001861  81.4673 278.6671 13.19723801150862
ONEWEB-0642             
1 55806U 23029L   26107.14154168  .00000033  00000+0  49572-4 0  9992
2 55806  87.9163 317.1520 0002338  68.1302 292.0079 13.19727244150853
ONEWEB-0643             
1 55807U 23029M   26107.09763648 -.00000209  00000+0 -59804-3 0  9991
2 55807  87.8921 301.9287 0001942  68.8922 291.2415 13.14501650151369
ONEWEB-0644             
1 55808U 23029N   26107.28843360  .00000089  00000+0  19051-3 0  9997
2 55808  87.9153 317.1263 0001974  76.6169 283.5184 13.19724442150879
ONEWEB-0645             
1 55809U 23029P   26107.08311350  .00006867  00000+0  17115-1 0  9992
2 55809  87.9166 317.1628 0002314  91.9752 268.1645 13.19689316150844
ONEWEB-0646             
1 55810U 23029Q   26107.10046473  .00000089  00000+0  18892-3 0  9993
2 55810  87.9163 317.1593 0001864  77.6615 282.4726 13.19727175150836
ONEWEB-0648             
1 55811U 23029R   26107.06592871  .00000227  00000+0  57844-3 0  9991
2 55811  87.8929 301.9031 0002603  80.2728 279.8696 13.14501356151362
ONEWEB-0649             
1 55812U 23029S   26107.12574951 -.00000039  00000+0 -13097-3 0  9993
2 55812  87.9169 317.1515 0002038  83.6078 276.5287 13.19723702150874
ONEWEB-0650             
1 55813U 23029T   26107.12100713  .00000038  00000+0  62378-4 0  9999
2 55813  87.9164 317.1553 0002037  75.0223 285.1136 13.19723753150840
ONEWEB-0652             
1 55814U 23029U   26107.04689073  .00000006  00000+0 -17938-4 0  9990
2 55814  87.8918 301.9189 0001604  92.3916 267.7398 13.14501694151337
ONEWEB-0653             
1 55815U 23029V   26106.95491480 -.00000201  00000+0 -57694-3 0  9993
2 55815  87.8931 301.9313 0001759  95.1213 265.0118 13.14501796151350
ONEWEB-0654             
1 55816U 23029W   26106.56956728 -.00000193  00000+0 -55471-3 0  9993
2 55816  87.8922 302.0051 0001534  99.9518 260.1785 13.14502057151327
ONEWEB-0656             
1 55817U 23029X   26106.76531807  .00000134  00000+0  29712-3 0  9995
2 55817  87.9138 286.6887 0001559 106.1324 253.9981 13.20772011153040
ONEWEB-0657             
1 55818U 23029Y   26107.11627026 -.00001142  00000+0 -28846-2 0  9993
2 55818  87.9170 317.1549 0000754  75.7390 284.3827 13.19729232150850
